{"epoch":1784799577,"count":18318,"objects":[{"id":"32289","name":"YAOGAN 3","type":"PAYLOAD","l1":"1 32289U 07055A   26203.96802917  .00001873  00000-0  19556-3 0  9994","l2":"2 32289  97.8147 233.4922 0001489  87.9111 272.2277 14.90900907 11208"},{"id":"33446","name":"YAOGAN 4","type":"PAYLOAD","l1":"1 33446U 08061A   26203.31446922  .00000758  00000-0  99196-4 0  9997","l2":"2 33446  97.9302 136.5669 0013282 321.4364  38.5899 14.83260998950878"},{"id":"36110","name":"YAOGAN 7","type":"PAYLOAD","l1":"1 36110U 09069A   26203.63058784  .00000319  00000-0  51407-4 0  9993","l2":"2 36110  98.0023  89.2710 0023181 286.1393  73.7266 14.78040201894862"},{"id":"38038","name":"ZY 1","type":"PAYLOAD","l1":"1 38038U 11079A   26203.98576682  .00000130  00000-0  56933-4 0  9998","l2":"2 38038  98.4052 270.5433 0006162 188.9657 294.8470 14.38239323764352"},{"id":"40275","name":"YAOGAN 22","type":"PAYLOAD","l1":"1 40275U 14063A   26203.85362061 -.00000015  00000-0  83718-4 0  9994","l2":"2 40275 100.7772 355.7263 0006913 109.5155 250.6703 13.15531726564507"},{"id":"40310","name":"YAOGAN 24","type":"PAYLOAD","l1":"1 40310U 14072A   26203.94052046  .00000645  00000-0  10100-3 0  9995","l2":"2 40310  98.1534 341.5851 0015199 145.6477 214.5718 14.76124978628997"},{"id":"40362","name":"YAOGAN 26","type":"PAYLOAD","l1":"1 40362U 14088A   26203.94407653  .00032448  00000-0  60612-3 0  9996","l2":"2 40362  97.0658 203.3517 0001004 259.5468 100.5670 15.48695386643239"},{"id":"40878","name":"YAOGAN 27","type":"PAYLOAD","l1":"1 40878U 15040A   26203.98638391 -.00000140  00000-0 -25766-3 0  9993","l2":"2 40878 100.1184 188.8189 0008792 128.2470 231.9436 13.16072443522375"},{"id":"41026","name":"YAOGAN 28","type":"PAYLOAD","l1":"1 41026U 15064A   26203.95623269  .00007234  00000-0  26832-3 0  9994","l2":"2 41026  97.3113 341.5085 0011867  68.9760 291.2747 15.27833333596149"},{"id":"41038","name":"YAOGAN 29","type":"PAYLOAD","l1":"1 41038U 15069A   26204.00302997 -.00000052  00000-0  20730-6 0  9997","l2":"2 41038  98.0026 232.6902 0000096  96.5568 263.5656 14.83109876575930"}]}